TRITON-1                
1 39427U 13066M   26185.24577926  .00002491  00000+0  30121-3 0  9990
2 39427  97.8233  94.6639 0089692 177.6997 182.4647 14.81764104676610
GOMX-1                  
1 39430U 13066Q   26185.27696071  .00001654  00000+0  25290-3 0  9991
2 39430  97.6468  24.6603 0129239  23.2162 337.4811 14.69517039672427
CUBEBUG-2 (LO-74)       
1 39440U 13066AA  26185.27779390  .00005912  00000+0  54421-3 0  9997
2 39440  97.8916 134.3300 0056467 332.5565  27.2675 14.93908765679545
NEE-02 KRYSAOR          
1 39441U 13066AB  26185.30490808  .00003432  00000+0  37715-3 0  9998
2 39441  97.8894 124.3983 0066437  15.0684 345.2490 14.86701659678744
FUNCUBE-1 (AO-73)       
1 39444U 13066AE  26185.15812842  .00008874  00000+0  54563-3 0  9995
2 39444  97.8284 156.9608 0037373 143.7626 216.6145 15.09700275682222
UWE-3                   
1 39446U 13066AG  26185.12555732  .00003910  00000+0  33627-3 0  9990
2 39446  97.8706 141.3160 0047264 263.1335  96.4508 14.97148149680113
SMDC ONE 2.4            
1 39469U 13072H   26184.66411017  .00015124  00000+0  55863-3 0  9993
2 39469 120.4915  55.7146 0147149  36.4228 324.6755 15.18538861120331
COSMOS 2488 (RODNIK-S 7)
1 39483U 13076A   26185.26392324  .00000015  00000+0  33410-4 0  9997
2 39483  82.4844 158.0560 0020819  60.1521 300.1624 12.42906003568012
COSMOS 2489 (RODNIK-S 8)
1 39484U 13076B   26185.31998240 -.00000037  00000+0 -34145-3 0  9994
2 39484  82.4879 159.4055 0022634  59.8878 300.4442 12.42879518568079
COSMOS 2490 (RODNIK-S 9)
1 39485U 13076C   26185.29189600 -.00000009  00000+0 -13968-3 0  9993
2 39485  82.4827 157.4830 0022896  74.7604 285.6005 12.42878652568005
KAZEOSAT 1              
1 39731U 14024A   26184.95150596  .00000076  00000+0  36169-4 0  9996
2 39731  98.3202 256.9818 0001156  78.7649 281.3671 14.42086207640970
COSMOS 2496 (RODNIK-S *)
1 39761U 14028A   26185.32988898  .00000122  00000+0  81098-3 0  9991
2 39761  82.4460  97.9956 0021192  43.5802 316.6947 12.42879393549646
COSMOS 2497 (RODNIK-S *)
1 39762U 14028B   26185.22445537  .00000078  00000+0  49222-3 0  9992
2 39762  82.4509  99.7579 0021690  38.9986 321.2653 12.42894937549632
COSMOS 2498 (RODNIK-S *)
1 39763U 14028C   26185.28137012  .00000091  00000+0  58335-3 0  9995
2 39763  82.4469  98.2020 0022410  38.4456 321.8215 12.42980775549671
HODOYOSHI-4             
1 40011U 14033B   26185.31457385  .00000804  00000+0  92594-4 0  9999
2 40011  97.5450   9.3098 0022170 247.8444 112.0420 14.88164669651355
UNISAT-6                
1 40012U 14033C   26185.14312573  .00002877  00000+0  31126-3 0  9995
2 40012  97.7902 337.5585 0045121  14.4000 345.8491 14.88329213648688
DEIMOS-2                
1 40013U 14033D   26185.26492918  .00001733  00000+0  16862-3 0  9991
2 40013  97.5800  59.1517 0000951  78.4158 281.7169 14.93771222640276
BUGSAT-1 (TITA)         
1 40014U 14033E   26185.26710797  .00007884  00000+0  41248-3 0  9999
2 40014  98.0433 278.8166 0028921 121.6361 238.7698 15.15784484658423
SAUDISAT 4              
1 40016U 14033G   26184.41744640  .00000693  00000+0  97936-4 0  9998
2 40016  97.7604 329.9924 0045252  22.3541 337.9630 14.79565255648478
APRIZESAT 9             
1 40018U 14033J   26185.10818859  .00000922  00000+0  14228-3 0  9998
2 40018  97.9082 317.8950 0066949 144.9700 215.5940 14.74240561646053
BRITE-CA1 (TORONTO)     
1 40020U 14033L   26185.09178654  .00001173  00000+0  18344-3 0  9993
2 40020  97.9761 313.7101 0077680 222.0405 137.4826 14.72706062644703
